NORAD_CAT_ID,OBJECT_NAME,OBJECT_TYPE,EPOCH,MEAN_MOTION,ECCENTRICITY,INCLINATION,RA_OF_ASC_NODE,ARG_OF_PERICENTER,MEAN_ANOMALY,BSTAR,MEAN_MOTION_DOT,MEAN_MOTION_DDOT,TLE_LINE0,TLE_LINE1,TLE_LINE2,SEMIMAJOR_AXIS,PERIOD,APOGEE,PERIGEE,DECAYED
53536.0,STARLINK-4053,PAYLOAD,2022-11-02 14:00:01,15.07199272,0.0001654,53.2131,153.8114,63.2678,98.6443,0.0013950999999999,0.00021013,0.0,0 STARLINK-4053,1 53536U 22101K   22306.58334491  .00021013  00000-0  13951-2 0  9996,2 53536  53.2131 153.8114 0001654  63.2678  98.6443 15.07199272  1301,6922.9,95.541,545.91,543.62,0.0
53536.0,STARLINK-4053,PAYLOAD,2022-11-02 20:00:01,15.07211773,0.0001759,53.2123,152.6948,56.6522,22.5428,-0.0010416,-0.00016106,0.0,0 STARLINK-4053,1 53536U 22101K   22306.83335648 -.00016106  00000-0 -10416-2 0  9991,2 53536  53.2123 152.6948 0001759  56.6522  22.5428 15.07211773 11709,6922.861999999999,95.541,545.944,543.509,0.0
53536.0,STARLINK-4053,PAYLOAD,2022-11-02 22:50:02,15.07191928,0.0001748,53.2132,152.1643,66.4342,293.6833,0.00027685,3.932e-05,0.0,0 STARLINK-4053,1 53536U 22101K   22306.95142205  .00003932  00000-0  27685-3 0  9997,2 53536  53.2132 152.1643 0001748  66.4342 293.6833 15.07191928 11725,6922.922,95.542,545.998,543.577,0.0
53536.0,STARLINK-4053,PAYLOAD,2022-11-03 13:09:26,15.07207113,0.000159,53.2129,149.49200000000005,59.681,300.4338,0.00011229,1.426e-05,0.0,0 STARLINK-4053,1 53536U 22101K   22307.54822255  .00001426  00000-0  11229-3 0  9996,2 53536  53.2129 149.4920 0001590  59.6810 300.4338 15.07207113 11818,6922.876,95.541,545.842,543.64,0.0
53536.0,STARLINK-4053,PAYLOAD,2022-11-03 17:55:57,15.07174319,0.0001581,53.2132,148.6013,67.0345,293.0813,-0.00023937,-3.922e-05,0.0,0 STARLINK-4053,1 53536U 22101K   22307.74718790 -.00003922  00000-0 -23937-3 0  9990,2 53536  53.2132 148.6013 0001581  67.0345 293.0813 15.07174319 11841,6922.976,95.543,545.936,543.747,0.0
53536.0,STARLINK-4053,PAYLOAD,2022-11-03 22:42:22,15.07207498,0.0001354,53.2131,147.7098,64.7791,295.3341,3.2801e-05,2.16e-06,0.0,0 STARLINK-4053,1 53536U 22101K   22307.94609570  .00000216  00000-0  32801-4 0  9999,2 53536  53.2131 147.7098 0001354  64.7791 295.3341 15.07207498 11879,6922.875,95.541,545.677,543.802,0.0
53536.0,STARLINK-4053,PAYLOAD,2022-11-04 13:01:46,15.07212142,0.0001379,53.2138,145.0384,57.1789,302.9335,0.0001017,1.265e-05,0.0,0 STARLINK-4053,1 53536U 22101K   22308.54289901  .00001265  00000-0  10170-3 0  9997,2 53536  53.2138 145.0384 0001379  57.1789 302.9335 15.07212142 11965,6922.861,95.541,545.68,543.771,0.0
53536.0,STARLINK-4053,PAYLOAD,2022-11-04 19:23:43,15.07218048,0.0001475,53.2139,143.851,58.9641,301.1495,0.00014826,1.975e-05,0.0,0 STARLINK-4053,1 53536U 22101K   22308.80814069  .00001975  00000-0  14826-3 0  9995,2 53536  53.2139 143.8510 0001475  58.9641 301.1495 15.07218048 12001,6922.842,95.54,545.729,543.686,0.0
53536.0,STARLINK-4053,PAYLOAD,2022-11-05 12:54:07,15.07153481,0.0001961,53.2137,140.5845,69.0453,291.0748,0.0010595999999999,0.0001585999999999,0.0,0 STARLINK-4053,1 53536U 22101K   22309.53758326  .00015860  00000-0  10596-2 0  9996,2 53536  53.2137 140.5845 0001961  69.0453 291.0748 15.07153481 12117,6923.04,95.544,546.263,543.548,0.0
53536.0,STARLINK-4053,PAYLOAD,2022-11-05 19:16:05,15.07156661,0.0001763,53.2138,139.3965,62.9143,297.2028,0.00075928,0.00011278,0.0,0 STARLINK-4053,1 53536U 22101K   22309.80284249  .00011278  00000-0  75928-3 0  9994,2 53536  53.2138 139.3965 0001763  62.9143 297.2028 15.07156661 12151,6923.03,95.544,546.116,543.675,0.0
53536.0,STARLINK-4053,PAYLOAD,2022-11-06 06:24:29,15.07204711,0.0001655,53.2138,137.3176,63.9823,296.1339,4.610100000000001e-07,-2.76e-06,0.0,0 STARLINK-4053,1 53536U 22101K   22310.26701205 -.00000276  00000-0  46101-6 0  9993,2 53536  53.2138 137.3176 0001655  63.9823 296.1339 15.07204711 12220,6922.8830000000025,95.541,545.894,543.6030000000002,0.0
53536.0,STARLINK-4053,PAYLOAD,2022-11-06 11:10:58,15.07199857,0.000165,53.2138,136.4266,64.4264,295.6897,-4.4233e-05,-9.57e-06,0.0,0 STARLINK-4053,1 53536U 22101K   22310.46595251 -.00000957  00000-0 -44233-4 0  9996,2 53536  53.2138 136.4266 0001650  64.4264 295.6897 15.07199857 12250,6922.898,95.541,545.905,543.621,0.0
53536.0,STARLINK-4053,PAYLOAD,2022-11-07 12:38:47,15.07202992,0.0001583,53.2141,131.6752,65.1481,294.9674,9.8301e-05,1.213e-05,0.0,0 STARLINK-4053,1 53536U 22101K   22311.52693467  .00001213  00000-0  98301-4 0  9991,2 53536  53.2141 131.6752 0001583  65.1481 294.9674 15.07202992 12413,6922.889,95.541,545.849,543.658,0.0
53536.0,STARLINK-4053,PAYLOAD,2022-11-07 17:25:15,15.07205755,0.0001606,53.2143,130.7846,65.4069,294.7089,0.00011926,1.532e-05,0.0,0 STARLINK-4053,1 53536U 22101K   22311.72586845  .00001532  00000-0  11926-3 0  9995,2 53536  53.2143 130.7846 0001606  65.4069 294.7089 15.07205755 12441,6922.88,95.541,545.857,543.633,0.0
53536.0,STARLINK-4053,PAYLOAD,2022-11-08 04:33:40,15.07209401,0.0001561,53.214,128.7053,63.345,296.7701,0.0001922,2.644e-05,0.0,0 STARLINK-4053,1 53536U 22101K   22312.19004649  .00002644  00000-0  19220-3 0  9994,2 53536  53.2140 128.7053 0001561  63.3450 296.7701 15.07209401 12519,6922.869000000002,95.541,545.815,543.653,0.0
53536.0,STARLINK-4053,PAYLOAD,2022-11-08 18:53:03,15.07215615,0.0001327,53.2142,126.0311,61.706,298.4065,0.00016183,2.181e-05,0.0,0 STARLINK-4053,1 53536U 22101K   22312.78684840  .00002181  00000-0  16183-3 0  9997,2 53536  53.2142 126.0311 0001327  61.7060 298.4065 15.07215615 12604,6922.85,95.54,545.634,543.7959999999998,0.0
53536.0,STARLINK-4053,PAYLOAD,2022-11-09 10:47:57,15.07207135,0.0001371,53.2143,123.0626,55.4598,304.6523,6.0142e-05,6.32e-06,0.0,0 STARLINK-4053,1 53536U 22101K   22313.44997262  .00000632  00000-0  60142-4 0  9990,2 53536  53.2143 123.0626 0001371  55.4598 304.6523 15.07207135 12704,6922.876,95.541,545.69,543.7919999999998,0.0
53536.0,STARLINK-4053,PAYLOAD,2022-11-09 15:34:25,15.07205406,0.0001385999999999,53.2145,122.172,58.3132,301.7994,1.5946e-05,-4.1e-07,0.0,0 STARLINK-4053,1 53536U 22101K   22313.64890974 -.00000041  00000-0  15946-4 0  9991,2 53536  53.2145 122.1720 0001386  58.3132 301.7994 15.07205406 12735,6922.880999999999,95.541,545.706,543.7869999999998,0.0
53536.0,STARLINK-4053,PAYLOAD,2022-11-09 20:20:53,15.07203748,0.0001243,53.2151,121.2813,44.9907,315.1185,-1.5357e-05,-5.17e-06,0.0,0 STARLINK-4053,1 53536U 22101K   22313.84784691 -.00000517  00000-0 -15357-4 0  9996,2 53536  53.2151 121.2813 0001243  44.9907 315.1185 15.07203748 12769,6922.886,95.541,545.612,543.891,0.0
53536.0,STARLINK-4053,PAYLOAD,2022-11-10 18:37:44,15.0721335,0.0001349,53.2154,117.1241,48.8558,311.255,-4.3535e-05,-9.46e-06,0.0,0 STARLINK-4053,1 53536U 22101K   22314.77620591 -.00000946  00000-0 -43535-4 0  9992,2 53536  53.2154 117.1241 0001349  48.8558 311.2550 15.07213350 12902,6922.857,95.541,545.656,543.788,0.0
53536.0,STARLINK-4053,PAYLOAD,2022-11-10 20:13:13,15.07213907,0.0001391,53.2151,116.8268,63.1838,296.9295,-3.1465e-05,-7.62e-06,0.0,0 STARLINK-4053,1 53536U 22101K   22314.84251673 -.00000762  00000-0 -31465-4 0  9996,2 53536  53.2151 116.8268 0001391  63.1838 296.9295 15.07213907 12916,6922.855,95.541,545.683,543.757,0.0
53536.0,STARLINK-4053,PAYLOAD,2022-11-11 10:32:37,15.07202971,0.0001974,53.216,114.1549,67.9304,292.1897,0.00013414,1.759e-05,0.0,0 STARLINK-4053,1 53536U 22101K   22315.43932606  .00001759  00000-0  13414-3 0  9992,2 53536  53.2160 114.1549 0001974  67.9304 292.1897 15.07202971 13002,6922.889,95.541,546.12,543.387,0.0
53536.0,STARLINK-4053,PAYLOAD,2022-11-11 16:54:35,15.07193647,0.0001555,53.2162,112.9655,67.7165,292.3992,4.8277e-05,4.51e-06,0.0,0 STARLINK-4053,1 53536U 22101K   22315.70458234  .00000451  00000-0  48277-4 0  9996,2 53536  53.2162 112.9655 0001555  67.7165 292.3992 15.07193647 13047,6922.917,95.542,545.859,543.706,0.0
53536.0,STARLINK-4053,PAYLOAD,2022-11-11 20:05:34,15.07195781,0.0001589,53.2163,112.3717,67.3544,292.7615,6.5547e-05,7.14e-06,0.0,0 STARLINK-4053,1 53536U 22101K   22315.83720517  .00000714  00000-0  65547-4 0  9997,2 53536  53.2163 112.3717 0001589  67.3544 292.7615 15.07195781 13064,6922.911,95.542,545.876,543.6759999999998,0.0
53536.0,STARLINK-4053,PAYLOAD,2022-11-12 04:03:01,15.07202313,0.0001605,53.2168,110.8867,69.1249,290.9914,6.4733e-05,7.02e-06,0.0,0 STARLINK-4053,1 53536U 22101K   22316.16876184  .00000702  00000-0  64733-4 0  9999,2 53536  53.2168 110.8867 0001605  69.1249 290.9914 15.07202313 13117,6922.891,95.541,545.867,543.645,0.0
53536.0,STARLINK-4053,PAYLOAD,2022-11-12 16:46:55,15.07213843,0.0001613,53.2167,108.5112,66.2513,293.8647,9.3748e-05,1.144e-05,0.0,0 STARLINK-4053,1 53536U 22101K   22316.69924827  .00001144  00000-0  93748-4 0  9994,2 53536  53.2167 108.5112 0001613  66.2513 293.8647 15.07213843 13197,6922.855,95.541,545.837,543.604,0.0
53536.0,STARLINK-4053,PAYLOAD,2022-11-12 18:22:24,15.07213108,0.0001607,53.2166,108.2143,65.7318,294.3841,8.4991e-05,1.011e-05,0.0,0 STARLINK-4053,1 53536U 22101K   22316.76556041  .00001011  00000-0  84991-4 0  9994,2 53536  53.2166 108.2143 0001607  65.7318 294.3841 15.07213108 13205,6922.858,95.541,545.835,543.61,0.0
53536.0,STARLINK-4053,PAYLOAD,2022-11-13 10:17:18,15.07200235,0.000162,53.216,105.2455,61.6362,298.4792,8.297899999999999e-05,9.8e-06,0.0,0 STARLINK-4053,1 53536U 22101K   22317.42868655  .00000980  00000-0  82979-4 0  9993,2 53536  53.2160 105.2455 0001620  61.6362 298.4792 15.07200235 13309,6922.897,95.541,545.884,543.641,0.0
53536.0,STARLINK-4053,PAYLOAD,2022-11-13 16:39:15,15.07205873,0.0001607,53.2161,104.058,60.4136,299.7015,0.00010953,1.384e-05,0.0,0 STARLINK-4053,1 53536U 22101K   22317.69393021  .00001384  00000-0  10953-3 0  9993,2 53536  53.2161 104.0580 0001607  60.4136 299.7015 15.07205873 13346,6922.88,95.541,545.857,543.632,0.0
